[{"OBJECT_NAME":"SATELIOT_1","OBJECT_ID":"2024-149CL","EPOCH":"2026-03-09T18:08:18.068352","MEAN_MOTION":14.97604186,"ECCENTRICITY":0.00077489,"INCLINATION":97.6798,"RA_OF_ASC_NODE":146.3176,"ARG_OF_PERICENTER":58.9869,"MEAN_ANOMALY":301.2113,"EPHEMERIS_TYPE":0,"CLASSIFICATION_TYPE":"U","NORAD_CAT_ID":60550,"ELEMENT_SET_NO":999,"REV_AT_EPOCH":8518,"BSTAR":0.00029754021,"MEAN_MOTION_DOT":3.421e-5,"MEAN_MOTION_DDOT":0},{"OBJECT_NAME":"STARLINK-35769","OBJECT_ID":"2025-280X","EPOCH":"2026-03-09T21:57:25.785792","MEAN_MOTION":14.98327792,"ECCENTRICITY":0.00037575,"INCLINATION":70.0017,"RA_OF_ASC_NODE":333.7221,"ARG_OF_PERICENTER":286.9763,"MEAN_ANOMALY":73.0984,"EPHEMERIS_TYPE":0,"CLASSIFICATION_TYPE":"U","NORAD_CAT_ID":66842,"ELEMENT_SET_NO":999,"REV_AT_EPOCH":1611,"BSTAR":0.0013743089,"MEAN_MOTION_DOT":0.00016343,"MEAN_MOTION_DDOT":0}]
